{"spkid": "50555188", "covariance": {"labels": ["e", "q", "tp", "node", "peri", "i"], "data": [["4.171182740810088E-11", "-9.981264747081051E-11", "-1.552431476155377E-8", "6.124802292234546E-9", "-2.210260095155955E-8", "6.608417239072272E-10"], ["-9.981264747081051E-11", "2.388808482906356E-10", "3.81427130653152E-8", "-1.292773784594361E-8", "5.16212967831614E-8", "-1.558835306216222E-9"], ["-1.552431476155377E-8", "3.81427130653152E-8", "3.182185280103567E-5", "3.984689720208861E-5", "-2.185917920355667E-5", "2.582008777213861E-7"], ["6.124802292234546E-9", "-1.292773784594361E-8", "3.984689720208861E-5", ".0001457534168297776", "-.0001283897480177563", "2.990552498711899E-6"], ["-2.210260095155955E-8", "5.16212967831614E-8", "-2.185917920355667E-5", "-.0001283897480177563", ".0001227142045230013", "-3.004279164377652E-6"], ["6.608417239072272E-10", "-1.558835306216222E-9", "2.582008777213861E-7", "2.990552498711899E-6", "-3.004279164377652E-6", "7.659364357043824E-8"]], "elements": [{"label": "e", "name": "e", "sigma": 6.45846943231141e-06, "units": null, "title": "eccentricity", "value": ".6970308010744656"}, {"label": "q", "value": ".7192478386011212", "title": "perihelion distance", "units": "au", "sigma": 1.5455770711635e-05, "name": "q"}, {"sigma": 0.00564108613664387, "name": "tp", "units": "TDB", "value": "2458167.448763652041", "title": "time of perihelion passage", "label": "tp"}, {"label": "node", "units": "deg", "title": "longitude of the ascending node", "value": "243.3634237177817", "name": "om", "sigma": 0.0120728379774508}, {"sigma": 0.0110776443580303, "name": "w", "units": "deg", "value": "124.9433901332995", "title": "argument of perihelion", "label": "peri"}, {"label": "i", "sigma": 0.000276755566466943, "name": "i", "units": "deg", "title": "inclination", "value": "1.745704119258366"}], "epoch": "2458151.5"}, "elements": [{"label": "e", "units": null, "value": ".6972502615734523", "title": "eccentricity", "name": "e", "sigma": "6.52E-6"}, {"sigma": "2.4792E-7", "name": "a", "value": "2.372488846560043", "title": "semi-major axis", "units": "au", "label": "a"}, {"label": "q", "sigma": "1.5542E-5", "name": "q", "units": "au", "title": "perihelion distance", "value": ".7182703777159549"}, {"sigma": ".00027623", "name": "i", "value": "1.74768140380266", "title": "inclination; angle with respect to x-y ecliptic plane", "units": "deg", "label": "i"}, {"value": "243.190178801223", "title": "longitude of the ascending node", "units": "deg", "name": "om", "sigma": ".012062", "label": "node"}, {"label": "peri", "name": "w", "sigma": ".011068", "title": "argument of perihelion", "value": "125.0783496669076", "units": "deg"}, {"sigma": ".0016382", "name": "ma", "units": "deg", "title": "mean anomaly", "value": "97.86972495303607", "label": "M"}, {"name": "tp", "sigma": ".0060483", "title": "time of perihelion passage", "value": "2460837.630419175458", "units": "TDB", "label": "tp"}, {"units": "d", "value": "1334.764649226521", "title": "sidereal orbital period", "sigma": ".00020922", "name": "per", "label": "period"}, {"label": "n", "units": "deg/d", "title": "mean motion", "value": ".2697104693390069", "sigma": "4.2277E-8", "name": "n"}, {"label": "Q", "name": "ad", "sigma": "4.2079E-7", "value": "4.026707315404131", "title": "aphelion distance", "units": "au"}], "epoch": "2461200.5"}